     2.100          NAVIGATION                              RINEX VERSION / TYPE
fic2rin                                 05/26/2016 00:05:46 PGM / RUN BY / DATE
                                                            END OF HEADER
28 16  5 25 20  0  0.0  .525543000549D-03  .272848410532D-11  .000000000000D+00
     .620000000000D+02  .186250000000D+02  .414695845175D-08  .276285641252D+01
     .908970832825D-06  .197352583054D-01  .157393515110D-05  .515362745094D+04
     .331200000000D+06  .292435288429D-06  .209915117586D+01 -.175088644028D-06
     .989352221600D+00  .361406250000D+03 -.161641878615D+01 -.779425323336D-08
    -.114290474943D-10  .100000000000D+01  .189800000000D+04  .000000000000D+00
     .240000000000D+01  .000000000000D+00 -.111758708954D-07  .620000000000D+02
     .324006000000D+06  .400000000000D+01
29 16  5 25 20  0  0.0  .657095573843D-03 -.113686837722D-12  .000000000000D+00
     .540000000000D+02 -.119343750000D+03  .420624663563D-08 -.198504576590D+01
    -.615604221821D-05  .960531760938D-03  .646524131298D-05  .515357235336D+04
     .331200000000D+06 -.223517417908D-07  .312539916718D+01 -.745058059692D-07
     .977687132273D+00  .259406250000D+03 -.242684278923D+00 -.801854829044D-08
    -.302512600864D-09  .100000000000D+01  .189800000000D+04  .000000000000D+00
     .240000000000D+01  .000000000000D+00 -.102445483208D-07  .540000000000D+02
     .324006000000D+06  .400000000000D+01
30 16  5 25 20  0  0.0  .128114130348D-03  .295585778076D-11  .000000000000D+00
     .830000000000D+02  .946250000000D+02  .455233248006D-08 -.713826669426D+00
     .482425093651D-05  .209411128890D-02  .804848968983D-05  .515360559464D+04
     .331200000000D+06  .298023223877D-07  .104301913581D+01  .558793544769D-08
     .952247553024D+00  .217062500000D+03  .300876770586D+01 -.809105131048D-08
     .173935816553D-09  .100000000000D+01  .189800000000D+04  .000000000000D+00
     .240000000000D+01  .000000000000D+00  .325962901115D-08  .830000000000D+02
     .324006000000D+06  .400000000000D+01
31 16  5 25 20  0  0.0  .267197843641D-03 -.193267624127D-11  .000000000000D+00
     .690000000000D+02  .939062500000D+02  .413267214238D-08 -.971604939177D+00
     .456534326077D-05  .817669730168D-02  .920705497265D-05  .515375858879D+04
     .331200000000D+06 -.521540641785D-07  .100819279098D+01 -.124797224998D-06
     .971300475204D+00  .205125000000D+03 -.397425900213D+00 -.792175854447D-08
     .218580533328D-09  .100000000000D+01  .189800000000D+04  .000000000000D+00
     .240000000000D+01  .000000000000D+00 -.135041773319D-07  .690000000000D+02
     .324006000000D+06  .400000000000D+01
32 16  5 25 20  0  0.0 -.120243057609D-04 -.659383658785D-11  .000000000000D+00
     .770000000000D+02  .687500000000D+00  .448697261471D-08  .231474188133D+01
     .249594449997D-06  .383594422601D-03  .853464007378D-05  .515360924530D+04
     .331200000000D+06 -.149011611938D-07 -.775602943776D-01 -.577419996262D-07
     .960017419619D+00  .212562500000D+03 -.234300154824D+01 -.796604610351D-08
    -.347514475373D-09  .100000000000D+01  .189800000000D+04  .000000000000D+00
     .240000000000D+01  .000000000000D+00  .465661287308D-09  .770000000000D+02
     .324006000000D+06  .400000000000D+01
25 16  5 25 19 59 44.0 -.178088434041D-03 -.704858393874D-11  .000000000000D+00
     .100000000000D+01  .370312500000D+02  .452625996547D-08 -.194502145955D+01
     .187195837498D-05  .562481919769D-02  .186450779438D-05  .515374881363D+04
     .331184000000D+06  .931322574615D-07  .202449543364D+01 -.409781932831D-07
     .978336471870D+00  .352875000000D+03  .774193777696D+00 -.826427281156D-08
     .251439044874D-09  .100000000000D+01  .189800000000D+04  .000000000000D+00
     .240000000000D+01  .000000000000D+00  .558793544769D-08  .100000000000D+01
     .327276000000D+06  .400000000000D+01
25 16  5 25 21 59 44.0 -.178138725460D-03 -.704858393874D-11  .000000000000D+00
     .300000000000D+01  .351875000000D+02  .448518682603D-08 -.894843191799D+00
     .202469527721D-05  .562486005947D-02  .192970037460D-05  .515374926758D+04
     .338384000000D+06  .912696123123D-07  .202443597919D+01  .335276126862D-07
     .978337999156D+00  .353437500000D+03  .774150157867D+00 -.831891794490D-08
     .226080845746D-09  .100000000000D+01  .189800000000D+04  .000000000000D+00
     .240000000000D+01  .000000000000D+00  .558793544769D-08  .300000000000D+01
     .331206000000D+06  .400000000000D+01
 1 16  5 25 22  0  0.0  .215363688767D-04  .125055521494D-11  .000000000000D+00
     .540000000000D+02 -.357187500000D+02  .443125600817D-08  .930418505334D+00
    -.159814953804D-05  .546303740703D-02  .980123877525D-05  .515364688873D+04
     .338400000000D+06  .428408384323D-07 -.216011190263D+01  .670552253723D-07
     .964304622472D+00  .190468750000D+03  .459170481905D+00 -.791175812791D-08
     .161792453591D-09  .100000000000D+01  .189800000000D+04  .000000000000D+00
     .340000000000D+01  .000000000000D+00  .512227416039D-08  .540000000000D+02
     .331206000000D+06  .400000000000D+01
 2 16  5 25 22  0  0.0  .589652452618D-03 -.238742359215D-11  .000000000000D+00
     .100000000000D+03 -.330937500000D+02  .486163107788D-08  .127982842057D+01
    -.172294676304D-05  .156823084690D-01  .108499079943D-04  .515378431892D+04
     .338400000000D+06 -.322237610817D-06 -.220560253990D+01  .279396772385D-07
     .943105419532D+00  .168750000000D+03 -.211715875237D+01 -.824641492485D-08
     .107147320259D-09  .100000000000D+01  .189800000000D+04  .000000000000D+00
     .240000000000D+01  .000000000000D+00 -.200234353542D-07  .100000000000D+03
     .331206000000D+06  .400000000000D+01
 3 16  5 25 22  0  0.0 -.612330622971D-04 -.363797880709D-11  .000000000000D+00
     .540000000000D+02  .121250000000D+02  .482555814672D-08  .221362914277D+01
     .484287738800D-06  .237218802795D-03  .615976750851D-05  .515369100952D+04
     .338400000000D+06  .372529029846D-08 -.111839609664D+01 -.745058059692D-08
     .958912198176D+00  .257687500000D+03 -.195527906662D+01 -.812426697976D-08
     .532165023952D-10  .100000000000D+01  .189800000000D+04  .000000000000D+00
     .240000000000D+01  .000000000000D+00  .186264514923D-08  .540000000000D+02
     .331206000000D+06  .400000000000D+01
 4 16  5 25 22  0  0.0 -.256820581853D-03 -.568434188608D-12  .000000000000D+00
     .240000000000D+02  .351875000000D+02  .560273337633D-08 -.217553614722D+01
     .160746276379D-05  .850867468398D-02  .191666185856D-05  .515364399910D+04
     .338400000000D+06  .119209289551D-06  .204606893002D+01 -.670552253723D-07
     .983117769453D+00  .351781250000D+03  .888750509580D+00 -.814819654795D-08
     .301798285396D-09  .100000000000D+01  .189800000000D+04  .000000000000D+00
     .240000000000D+01  .630000000000D+02 -.195577740669D-07  .240000000000D+02
     .331206000000D+06  .400000000000D+01
 5 16  5 25 22  0  0.0 -.117967370898D-03  .295585778076D-11  .000000000000D+00
     .380000000000D+02  .172187500000D+02  .511021286088D-08 -.248371799104D+01
     .910833477974D-06  .460151559673D-02  .577047467232D-05  .515378946495D+04
     .338400000000D+06  .186264514923D-08 -.113027607546D+01  .372529029846D-08
     .945980498285D+00  .261625000000D+03  .454133400410D+00 -.822677124947D-08
     .143220251413D-09  .100000000000D+01  .189800000000D+04  .000000000000D+00
     .240000000000D+01  .000000000000D+00 -.107102096081D-07  .380000000000D+02
     .331206000000D+06  .400000000000D+01
 6 16  5 25 22  0  0.0  .195452943444D-03  .545696821064D-11  .000000000000D+00
     .450000000000D+02 -.325312500000D+02  .427482092059D-08  .124916643590D+01
    -.183656811714D-05  .439011142589D-03  .101868063211D-04  .515370024681D+04
     .338400000000D+06  .372529029846D-08 -.216854344415D+01 -.111758708954D-07
     .964141902094D+00  .186062500000D+03 -.142181732561D+01 -.779211028696D-08
     .172507185617D-09  .100000000000D+01  .189800000000D+04  .000000000000D+00
     .240000000000D+01  .000000000000D+00  .419095158577D-08  .450000000000D+02
     .331206000000D+06  .400000000000D+01
 7 16  5 25 22  0  0.0  .452457461506D-03 -.227373675443D-11  .000000000000D+00
     .520000000000D+02  .805937500000D+02  .424160525131D-08  .200612441708D+00
     .434182584286D-05  .945524859708D-02  .874511897564D-05  .515365179825D+04
     .338400000000D+06  .100582838058D-06  .998792587035D+00  .169500708580D-06
     .966489891463D+00  .215687500000D+03 -.267690051613D+01 -.800426198107D-08
     .136077096729D-09  .100000000000D+01  .189800000000D+04  .000000000000D+00
     .240000000000D+01  .000000000000D+00 -.111758708954D-07  .520000000000D+02
     .331206000000D+06  .400000000000D+01
 8 16  5 25 22  0  0.0 -.365045852959D-04 -.147792889038D-11  .000000000000D+00
     .144000000000D+03 -.105500000000D+03  .460590614019D-08 -.235842955253D+01
    -.543147325516D-05  .174572120886D-02  .569038093090D-05  .515369891167D+04
     .338400000000D+06  .260770320892D-07  .306307425027D+01  .316649675369D-07
     .963554060649D+00  .272062500000D+03 -.110700761293D+01 -.811212361680D-08
    -.165721188667D-09  .100000000000D+01  .189800000000D+04  .000000000000D+00
     .240000000000D+01  .000000000000D+00  .465661287308D-08  .144000000000D+03
     .331206000000D+06  .400000000000D+01
 9 16  5 25 22  0  0.0  .136079732329D-03  .727595761418D-11  .000000000000D+00
     .500000000000D+02 -.428125000000D+01  .454768942952D-08  .271453184838D+01
    -.150874257088D-06  .569942290895D-03  .829622149467D-05  .515357372665D+04
     .338400000000D+06 -.726431608200D-07 -.790021844724D-01 -.707805156708D-07
     .955417259090D+00  .218125000000D+03  .225439405286D+01 -.794533095493D-08
    -.455376111100D-09  .100000000000D+01  .189800000000D+04  .000000000000D+00
     .240000000000D+01  .000000000000D+00  .139698386192D-08  .500000000000D+02
     .331206000000D+06  .400000000000D+01
